{
  "type": "FeatureCollection",
  "features": [
    {
      "type": "Feature",
      "properties": {
        "norad_id": 29945,
        "name": "FENGYUN 1C DEB",
        "group": "fengyun-1c-debris",
        "lat": -79.25258532907831,
        "lon": 141.82117806132678,
        "alt_km": 878.3187996204215,
        "timestamp": "2025-12-18T23:35:49.332836+00:00",
        "meta_object_name": "FENGYUN 1C DEB",
        "meta_object_id": "1999-025JT",
        "meta_epoch": "2025-12-18T14:20:56.253984",
        "meta_mean_motion": 14.05574773,
        "meta_eccentricity": 0.00305985,
        "meta_inclination": 98.7913,
        "meta_ra_of_asc_node": 16.0637,
        "meta_arg_of_pericenter": 345.8267,
        "meta_mean_anomaly": 129.558,
        "meta_ephemeris_type": 0,
        "meta_classification_type": "U",
        "meta_norad_cat_id": 29945,
        "meta_element_set_no": 999,
        "meta_rev_at_epoch": 97060,
        "meta_bstar": 0.00023276017,
        "meta_mean_motion_dot": 3.37e-06,
        "meta_mean_motion_ddot": 0,
        "tle_line1": "1 29945U 99025JT  25352.59787331  .00000337  00000+0  23276-3 0  9999",
        "tle_line2": "2 29945  98.7913  16.0637 0030598 345.8267 129.5580 14.05574773970606"
      },
      "geometry": {
        "type": "Point",
        "coordinates": [
          141.82117806132678,
          -79.25258532907831
        ]
      }
    },
    {
      "type": "Feature",
      "properties": {
        "norad_id": 29946,
        "name": "FENGYUN 1C DEB",
        "group": "fengyun-1c-debris",
        "lat": -13.685274172402364,
        "lon": -12.787866546092623,
        "alt_km": 815.1807688481776,
        "timestamp": "2025-12-18T23:35:49.332847+00:00",
        "meta_object_name": "FENGYUN 1C DEB",
        "meta_object_id": "1999-025JU",
        "meta_epoch": "2025-12-18T10:45:13.788864",
        "meta_mean_motion": 14.08260041,
        "meta_eccentricity": 0.00804059,
        "meta_inclination": 98.7801,
        "meta_ra_of_asc_node": 344.5347,
        "meta_arg_of_pericenter": 327.3478,
        "meta_mean_anomaly": 187.1205,
        "meta_ephemeris_type": 0,
        "meta_classification_type": "U",
        "meta_norad_cat_id": 29946,
        "meta_element_set_no": 999,
        "meta_rev_at_epoch": 97127,
        "meta_bstar": 0.00027898919,
        "meta_mean_motion_dot": 4.47e-06,
        "meta_mean_motion_ddot": 0,
        "tle_line1": "1 29946U 99025JU  25352.44807626  .00000447  00000+0  27899-3 0  9991",
        "tle_line2": "2 29946  98.7801 344.5347 0080405 327.3478 187.1205 14.08260041971272"
      },
      "geometry": {
        "type": "Point",
        "coordinates": [
          -12.787866546092623,
          -13.685274172402364
        ]
      }
    },
    {
      "type": "Feature",
      "properties": {
        "norad_id": 29947,
        "name": "FENGYUN 1C DEB",
        "group": "fengyun-1c-debris",
        "lat": -29.661531730848132,
        "lon": -161.7283711796192,
        "alt_km": 897.2133395584597,
        "timestamp": "2025-12-18T23:35:49.332857+00:00",
        "meta_object_name": "FENGYUN 1C DEB",
        "meta_object_id": "1999-025JV",
        "meta_epoch": "2025-12-18T14:35:28.423104",
        "meta_mean_motion": 14.03076259,
        "meta_eccentricity": 0.00409318,
        "meta_inclination": 98.8371,
        "meta_ra_of_asc_node": 22.9902,
        "meta_arg_of_pericenter": 104.7501,
        "meta_mean_anomaly": 10.4194,
        "meta_ephemeris_type": 0,
        "meta_classification_type": "U",
        "meta_norad_cat_id": 29947,
        "meta_element_set_no": 999,
        "meta_rev_at_epoch": 96832,
        "meta_bstar": 0.00038349143,
        "meta_mean_motion_dot": 5.58e-06,
        "meta_mean_motion_ddot": 0,
        "tle_line1": "1 29947U 99025JV  25352.60796786  .00000558  00000+0  38349-3 0  9999",
        "tle_line2": "2 29947  98.8371  22.9902 0040931 104.7501  10.4194 14.03076259968322"
      },
      "geometry": {
        "type": "Point",
        "coordinates": [
          -161.7283711796192,
          -29.661531730848132
        ]
      }
    },
    {
      "type": "Feature",
      "properties": {
        "norad_id": 29948,
        "name": "FENGYUN 1C DEB",
        "group": "fengyun-1c-debris",
        "lat": 34.40654899810083,
        "lon": 165.1096104039002,
        "alt_km": 849.7164648567805,
        "timestamp": "2025-12-18T23:35:49.332867+00:00",
        "meta_object_name": "FENGYUN 1C DEB",
        "meta_object_id": "1999-025JW",
        "meta_epoch": "2025-12-18T13:14:45.924288",
        "meta_mean_motion": 14.06196099,
        "meta_eccentricity": 0.00839377,
        "meta_inclination": 98.8245,
        "meta_ra_of_asc_node": 338.5819,
        "meta_arg_of_pericenter": 217.1162,
        "meta_mean_anomaly": 266.7126,
        "meta_ephemeris_type": 0,
        "meta_classification_type": "U",
        "meta_norad_cat_id": 29948,
        "meta_element_set_no": 999,
        "meta_rev_at_epoch": 97058,
        "meta_bstar": 0.00018514996,
        "meta_mean_motion_dot": 2.71e-06,
        "meta_mean_motion_ddot": 0,
        "tle_line1": "1 29948U 99025JW  25352.55192042  .00000271  00000+0  18515-3 0  9994",
        "tle_line2": "2 29948  98.8245 338.5819 0083937 217.1162 266.7126 14.06196099970581"
      },
      "geometry": {
        "type": "Point",
        "coordinates": [
          165.1096104039002,
          34.40654899810083
        ]
      }
    },
    {
      "type": "Feature",
      "properties": {
        "norad_id": 29949,
        "name": "FENGYUN 1C DEB",
        "group": "fengyun-1c-debris",
        "lat": 65.2233613347639,
        "lon": -152.00791867691245,
        "alt_km": 880.4869486172829,
        "timestamp": "2025-12-18T23:35:49.332942+00:00",
        "meta_object_name": "FENGYUN 1C DEB",
        "meta_object_id": "1999-025JX",
        "meta_epoch": "2025-12-18T15:05:58.026048",
        "meta_mean_motion": 14.06828343,
        "meta_eccentricity": 0.00230778,
        "meta_inclination": 98.7619,
        "meta_ra_of_asc_node": 8.1295,
        "meta_arg_of_pericenter": 288.2794,
        "meta_mean_anomaly": 192.7717,
        "meta_ephemeris_type": 0,
        "meta_classification_type": "U",
        "meta_norad_cat_id": 29949,
        "meta_element_set_no": 999,
        "meta_rev_at_epoch": 97190,
        "meta_bstar": 7.2999174e-05,
        "meta_mean_motion_dot": 7.9e-07,
        "meta_mean_motion_ddot": 0,
        "tle_line1": "1 29949U 99025JX  25352.62914382  .00000079  00000+0  72999-4 0  9995",
        "tle_line2": "2 29949  98.7619   8.1295 0023077 288.2794 192.7717 14.06828343971908"
      },
      "geometry": {
        "type": "Point",
        "coordinates": [
          -152.00791867691245,
          65.2233613347639
        ]
      }
    },
    {
      "type": "Feature",
      "properties": {
        "norad_id": 29950,
        "name": "FENGYUN 1C DEB",
        "group": "fengyun-1c-debris",
        "lat": 27.238352400662073,
        "lon": 19.343841633943395,
        "alt_km": 879.6436627827115,
        "timestamp": "2025-12-18T23:35:49.332955+00:00",
        "meta_object_name": "FENGYUN 1C DEB",
        "meta_object_id": "1999-025JY",
        "meta_epoch": "2025-12-18T13:58:39.726336",
        "meta_mean_motion": 14.10336772,
        "meta_eccentricity": 0.003253,
        "meta_inclination": 98.7404,
        "meta_ra_of_asc_node": 23.4965,
        "meta_arg_of_pericenter": 225.183,
        "meta_mean_anomaly": 288.5562,
        "meta_ephemeris_type": 0,
        "meta_classification_type": "U",
        "meta_norad_cat_id": 29950,
        "meta_element_set_no": 999,
        "meta_rev_at_epoch": 97373,
        "meta_bstar": 7.2691714e-05,
        "meta_mean_motion_dot": 8.7e-07,
        "meta_mean_motion_ddot": 0,
        "tle_line1": "1 29950U 99025JY  25352.58240424  .00000087  00000+0  72692-4 0  9990",
        "tle_line2": "2 29950  98.7404  23.4965 0032530 225.1830 288.5562 14.10336772973731"
      },
      "geometry": {
        "type": "Point",
        "coordinates": [
          19.343841633943395,
          27.238352400662073
        ]
      }
    },
    {
      "type": "Feature",
      "properties": {
        "norad_id": 29953,
        "name": "FENGYUN 1C DEB",
        "group": "fengyun-1c-debris",
        "lat": 57.80324687112678,
        "lon": -34.80808585572096,
        "alt_km": 995.8411965604892,
        "timestamp": "2025-12-18T23:35:49.332984+00:00",
        "meta_object_name": "FENGYUN 1C DEB",
        "meta_object_id": "1999-025KB",
        "meta_epoch": "2025-12-18T11:49:12.983232",
        "meta_mean_motion": 13.90853652,
        "meta_eccentricity": 0.01055981,
        "meta_inclination": 98.9376,
        "meta_ra_of_asc_node": 339.1928,
        "meta_arg_of_pericenter": 250.8318,
        "meta_mean_anomaly": 232.3155,
        "meta_ephemeris_type": 0,
        "meta_classification_type": "U",
        "meta_norad_cat_id": 29953,
        "meta_element_set_no": 999,
        "meta_rev_at_epoch": 95942,
        "meta_bstar": 0.00041737806,
        "meta_mean_motion_dot": 5.03e-06,
        "meta_mean_motion_ddot": 0,
        "tle_line1": "1 29953U 99025KB  25352.49251138  .00000503  00000+0  41738-3 0  9996",
        "tle_line2": "2 29953  98.9376 339.1928 0105598 250.8318 232.3155 13.90853652959424"
      },
      "geometry": {
        "type": "Point",
        "coordinates": [
          -34.80808585572096,
          57.80324687112678
        ]
      }
    }
  ]
}